{
  "norad_id": 65030,
  "name": "STARLINK-34614",
  "history": [
    {
      "epoch": "2026-03-28T17:58:41.574720Z",
      "apogee_km": 475.9193882917798,
      "perigee_km": 474.4773094676675,
      "latitude_deg": -2.5480755221660372e-06,
      "longitude_deg": 110.13909517146628,
      "height_km": 475.90851392140104,
      "semi_major_axis_km": 6853.335348879723,
      "eccentricity": 0.00010521,
      "inclination_deg": 53.1573,
      "raan_deg": 205.9774,
      "arg_perigee_deg": 74.8888,
      "mean_anomaly_deg": 285.2229,
      "mean_motion_rev_day": 15.302056
    },
    {
      "epoch": "2026-03-29T22:11:39.445440Z",
      "apogee_km": 476.10566720753195,
      "perigee_km": 474.26294617458825,
      "latitude_deg": -2.4668217893421037e-05,
      "longitude_deg": 40.27715802950412,
      "height_km": 475.9198550780004,
      "semi_major_axis_km": 6853.321306691059,
      "eccentricity": 0.00013444,
      "inclination_deg": 53.1581,
      "raan_deg": 200.5154,
      "arg_perigee_deg": 79.8568,
      "mean_anomaly_deg": 280.2584,
      "mean_motion_rev_day": 15.30210303
    },
    {
      "epoch": "2026-03-30T13:52:11.528544Z",
      "apogee_km": 476.0207533147186,
      "perigee_km": 474.4680512242203,
      "latitude_deg": -1.4167548830091595e-05,
      "longitude_deg": 161.46601382034552,
      "height_km": 476.0887939265067,
      "semi_major_axis_km": 6853.381402269469,
      "eccentricity": 0.00011328,
      "inclination_deg": 53.1581,
      "raan_deg": 197.4817,
      "arg_perigee_deg": 86.036,
      "mean_anomaly_deg": 274.077,
      "mean_motion_rev_day": 15.30190176
    },
    {
      "epoch": "2026-03-31T13:22:59.428992Z",
      "apogee_km": 476.7366468994969,
      "perigee_km": 473.86094523946576,
      "latitude_deg": -4.1167899009618554e-05,
      "longitude_deg": 163.25065262418727,
      "height_km": 476.4462725071601,
      "semi_major_axis_km": 6853.4357960694815,
      "eccentricity": 0.0002098,
      "inclination_deg": 53.16,
      "raan_deg": 192.9316,
      "arg_perigee_deg": 100.035,
      "mean_anomaly_deg": 260.0887,
      "mean_motion_rev_day": 15.30171959
    },
    {
      "epoch": "2026-04-01T12:53:47.566176Z",
      "apogee_km": 477.1245829138379,
      "perigee_km": 473.19490256155314,
      "latitude_deg": -1.6730342422449889e-06,
      "longitude_deg": 165.03445188134316,
      "height_km": 476.4085961749119,
      "semi_major_axis_km": 6853.296742737695,
      "eccentricity": 0.0002867,
      "inclination_deg": 53.1604,
      "raan_deg": 188.3816,
      "arg_perigee_deg": 100.3506,
      "mean_anomaly_deg": 259.7818,
      "mean_motion_rev_day": 15.3021853
    },
    {
      "epoch": "2026-04-02T12:24:35.185824Z",
      "apogee_km": 477.0641524570374,
      "perigee_km": 473.16040460300155,
      "latitude_deg": -2.8120752065182493e-06,
      "longitude_deg": 166.81898281636634,
      "height_km": 476.41538147135077,
      "semi_major_axis_km": 6853.249278530019,
      "eccentricity": 0.00028481,
      "inclination_deg": 53.16,
      "raan_deg": 183.8302,
      "arg_perigee_deg": 102.0432,
      "mean_anomaly_deg": 258.0888,
      "mean_motion_rev_day": 15.30234427
    },
    {
      "epoch": "2026-04-03T11:55:23.238336Z",
      "apogee_km": 476.22387275396613,
      "perigee_km": 474.55243503943257,
      "latitude_deg": -3.918547146319838e-05,
      "longitude_deg": 168.60377833138287,
      "height_km": 476.1485132635934,
      "semi_major_axis_km": 6853.525153896699,
      "eccentricity": 0.00012194,
      "inclination_deg": 53.1607,
      "raan_deg": 179.2809,
      "arg_perigee_deg": 80.5045,
      "mean_anomaly_deg": 279.6093,
      "mean_motion_rev_day": 15.30142033
    },
    {
      "epoch": "2026-04-04T13:00:14.656320Z",
      "apogee_km": 475.9522055853449,
      "perigee_km": 474.3129035078973,
      "latitude_deg": -6.083723753121975e-07,
      "longitude_deg": 146.5049269267114,
      "height_km": 476.1963268472338,
      "semi_major_axis_km": 6853.26955454662,
      "eccentricity": 0.0001196,
      "inclination_deg": 53.1603,
      "raan_deg": 174.4263,
      "arg_perigee_deg": 101.6506,
      "mean_anomaly_deg": 258.4629,
      "mean_motion_rev_day": 15.30227636
    }
  ]
}